STARLINK-5869
1 57061U 23088P   26090.44090806 -.00025252  00000+0 -15166-2 0  9996
2 57061  43.0049 348.2632 0002032 259.3115 100.7501 15.10074388152674
STARLINK-6355
1 57356U 23099AE  26090.83335647  .00055235  00000+0  33226-2 0  9992
2 57356  43.0007 115.7323 0001739 312.9902 141.9877 15.10066148  5824
STARLINK-30160
1 57441U 23105M   26090.83335647 -.00046005  00000+0 -27848-2 0  9995
2 57441  43.0003 139.9765 0002813 276.6171 223.0648 15.10035006  5716
